{
    "links": {
        "self": "http://www.neowsapp.com/rest/v1/neo/3838269?api_key=iIulBulltgU6a56xZRHN4H3l9WmuAYTsLGpBGhQ2"
    },
    "id": "3838269",
    "neo_reference_id": "3838269",
    "name": "(2019 CK5)",
    "designation": "2019 CK5",
    "nasa_jpl_url": "http://ssd.jpl.nasa.gov/sbdb.cgi?sstr=3838269",
    "absolute_magnitude_h": 26.3,
    "estimated_diameter": {
        "kilometers": {
            "estimated_diameter_min": 0.0146067964,
            "estimated_diameter_max": 0.0326617897
        },
        "meters": {
            "estimated_diameter_min": 14.6067964271,
            "estimated_diameter_max": 32.6617897446
        },
        "miles": {
            "estimated_diameter_min": 0.0090762397,
            "estimated_diameter_max": 0.020295089
        },
        "feet": {
            "estimated_diameter_min": 47.92256199,
            "estimated_diameter_max": 107.1581062656
        }
    },
    "is_potentially_hazardous_asteroid": false,
    "close_approach_data": [
        {
            "close_approach_date": "2019-02-23",
            "close_approach_date_full": "2019-Feb-23 08:33",
            "epoch_date_close_approach": 1550910780000,
            "relative_velocity": {
                "kilometers_per_second": "8.9379513099",
                "kilometers_per_hour": "32176.6247156358",
                "miles_per_hour": "19993.3032851127"
            },
            "miss_distance": {
                "astronomical": "0.0342497841",
                "lunar": "13.3231660149",
                "kilometers": "5123694.749319867",
                "miles": "3183716.2863414846"
            },
            "orbiting_body": "Earth"
        },
        {
            "close_approach_date": "2019-08-10",
            "close_approach_date_full": "2019-Aug-10 06:55",
            "epoch_date_close_approach": 1565420100000,
            "relative_velocity": {
                "kilometers_per_second": "6.4688155943",
                "kilometers_per_hour": "23287.7361394194",
                "miles_per_hour": "14470.093602852"
            },
            "miss_distance": {
                "astronomical": "0.4074105108",
                "lunar": "158.4826887012",
                "kilometers": "60947744.631291996",
                "miles": "37871172.4042857048"
            },
            "orbiting_body": "Earth"
        }
    ],
    "orbital_data": {
        "orbit_id": "1",
        "orbit_determination_date": "2019-02-12 22:42:58",
        "first_observation_date": "2019-02-04",
        "last_observation_date": "2019-02-13",
        "data_arc_in_days": 9,
        "observations_used": 17,
        "orbit_uncertainty": "8",
        "minimum_orbit_intersection": ".0269663",
        "jupiter_tisserand_invariant": "4.942",
        "epoch_osculation": "2458520.5",
        "eccentricity": ".309203696586456",
        "semi_major_axis": "1.302127766485446",
        "inclination": "6.082082525694374",
        "ascending_node_longitude": "142.6344000410769",
        "orbital_period": "542.723749527975",
        "perihelion_distance": ".8995050476602807",
        "perihelion_argument": "68.65389428531178",
        "aphelion_distance": "1.704750485310612",
        "perihelion_time": "2458583.447046677328",
        "mean_anomaly": "318.2459090401939",
        "mean_motion": ".6633208889662634",
        "equinox": "J2000",
        "orbit_class": {
            "orbit_class_type": "APO",
            "orbit_class_description": "Near-Earth asteroid orbits which cross the Earth’s orbit similar to that of 1862 Apollo",
            "orbit_class_range": "a (semi-major axis) > 1.0 AU; q (perihelion) < 1.017 AU"
        }
    },
    "is_sentry_object": false
}